[{"OBJECT_NAME":"STARLINK-32570","OBJECT_ID":"2024-222Z","EPOCH":"2026-03-09T12:35:32.374464","MEAN_MOTION":15.27615801,"ECCENTRICITY":0.00016527,"INCLINATION":42.9984,"RA_OF_ASC_NODE":137.1204,"ARG_OF_PERICENTER":277.9857,"MEAN_ANOMALY":82.0807,"EPHEMERIS_TYPE":0,"CLASSIFICATION_TYPE":"U","NORAD_CAT_ID":62137,"ELEMENT_SET_NO":999,"REV_AT_EPOCH":7287,"BSTAR":0.0012306627,"MEAN_MOTION_DOT":0.00033796,"MEAN_MOTION_DDOT":0},{"OBJECT_NAME":"FLOCK 4G-21","OBJECT_ID":"2025-009AU","EPOCH":"2026-03-09T04:40:37.351200","MEAN_MOTION":15.28381075,"ECCENTRICITY":4.655e-5,"INCLINATION":97.4032,"RA_OF_ASC_NODE":151.1274,"ARG_OF_PERICENTER":329.5782,"MEAN_ANOMALY":30.5431,"EPHEMERIS_TYPE":0,"CLASSIFICATION_TYPE":"U","NORAD_CAT_ID":62651,"ELEMENT_SET_NO":999,"REV_AT_EPOCH":6367,"BSTAR":0.00049618643,"MEAN_MOTION_DOT":0.00013648,"MEAN_MOTION_DDOT":0}]
