STARLINK-32570          
1 62137U 24222Z   26068.52468026  .00033796  00000+0  12307-2 0  9998
2 62137  42.9984 137.1204 0001652 277.9857  82.0807 15.27615801 72879
FLOCK 4G-21             
1 62651U 25009AU  26068.19487675  .00013648  00000+0  49619-3 0  9998
2 62651  97.4032 151.1274 0000465 329.5782  30.5431 15.28381075 63677
